FLOCK 4Q-11             
1 58273U 23174T   26073.81368050  .00031805  00000+0  66339-3 0  9997
2 58273  97.3897 160.5158 0007744 141.1384 219.0423 15.45466257130998
FLOCK 4Q-36             
1 58274U 23174U   26073.51197960  .00036528  00000+0  61766-3 0  9991
2 58274  97.3878 162.9127 0007816 131.0323 229.1606 15.51474570131126
FLOCK 4Q-12             
1 58275U 23174V   26073.70990793  .00113559  00000+0  17993-2 0  9990
2 58275  97.3873 163.0114 0004948 140.5122 219.6492 15.52994783131171
FLOCK 4Q-28             
1 58280U 23174AA  26073.79842219  .00039505  00000+0  71805-3 0  9995
2 58280  97.3910 162.3053 0007366 136.3626 223.8209 15.49413406131102
FLOCK 4Q-27             
1 58282U 23174AC  26073.72974477  .00036739  00000+0  66910-3 0  9999
2 58282  97.3839 161.7682 0006858 134.2014 225.9801 15.49375762131101
FLOCK 4Q-26             
1 58284U 23174AE  26073.69811735  .00041120  00000+0  70059-3 0  9993
2 58284  97.3894 163.1885 0007315 134.1305 226.0550 15.51240896131156
FLOCK 4Q-31             
1 58285U 23174AF  26073.66614133  .00051640  00000+0  89052-3 0  9995
2 58285  97.3937 162.7976 0007661 136.6714 223.5142 15.50846889131103
FLOCK 4Q-30             
1 58286U 23174AG  26073.71800230  .00051046  00000+0  87427-3 0  9991
2 58286  97.3949 163.0339 0007109 136.3713 223.8102 15.51047194131121
PELICAN-1               
1 58296U 23174AS  26072.22151359  .00029201  00000+0  31803-3 0  9993
2 58296  97.3987 167.1452 0009663 250.9049 109.1163 15.63326024131114
FLOCK 4Q-25             
1 58303U 23174AZ  26073.80118770  .00058658  00000+0  80628-3 0  9994
2 58303  97.3858 164.0461 0005310 120.1999 239.9783 15.57097919131260
FLOCK 4Q-29             
1 58304U 23174BA  26073.94439797  .00039410  00000+0  70323-3 0  9991
2 58304  97.3935 162.8496 0007378 126.6215 233.5716 15.49939738131136
FLOCK 4Q-22             
1 58306U 23174BC  26073.70231956  .00049156  00000+0  79598-3 0  9995
2 58306  97.3840 162.7988 0006268 131.0230 229.1566 15.52636740131171
FLOCK 4Q-23             
1 58307U 23174BD  26073.71333503  .00060256  00000+0  86639-3 0  9996
2 58307  97.3952 164.4057 0006722 125.0685 235.1201 15.55861331131211
FLOCK 4Q-33             
1 58308U 23174BE  26073.56270898  .00046884  00000+0  78602-3 0  9999
2 58308  97.3871 162.5852 0007450 119.7277 240.4717 15.51665227131134
FLOCK 4Q-35             
1 58309U 23174BF  26073.68202984  .00043424  00000+0  75645-3 0  9995
2 58309  97.3896 162.8664 0007824 133.3390 226.8515 15.50597931131138
FLOCK 4Q-34             
1 58316U 23174BN  26073.72351978  .00059846  00000+0  85249-3 0  9992
2 58316  97.3844 163.8101 0006572 125.5690 234.6178 15.56118184131228
