[{"OBJECT_NAME":"FLOCK 4Q-11","OBJECT_ID":"2023-174T","EPOCH":"2026-03-14T19:31:41.995200","MEAN_MOTION":15.45466257,"ECCENTRICITY":0.0007744,"INCLINATION":97.3897,"RA_OF_ASC_NODE":160.5158,"ARG_OF_PERICENTER":141.1384,"MEAN_ANOMALY":219.0423,"EPHEMERIS_TYPE":0,"CLASSIFICATION_TYPE":"U","NORAD_CAT_ID":58273,"ELEMENT_SET_NO":999,"REV_AT_EPOCH":13099,"BSTAR":0.00066338633,"MEAN_MOTION_DOT":0.00031805,"MEAN_MOTION_DDOT":0},{"OBJECT_NAME":"FLOCK 4Q-36","OBJECT_ID":"2023-174U","EPOCH":"2026-03-14T12:17:15.037440","MEAN_MOTION":15.5147457,"ECCENTRICITY":0.00078166,"INCLINATION":97.3878,"RA_OF_ASC_NODE":162.9127,"ARG_OF_PERICENTER":131.0323,"MEAN_ANOMALY":229.1606,"EPHEMERIS_TYPE":0,"CLASSIFICATION_TYPE":"U","NORAD_CAT_ID":58274,"ELEMENT_SET_NO":999,"REV_AT_EPOCH":13112,"BSTAR":0.00061766213,"MEAN_MOTION_DOT":0.00036528,"MEAN_MOTION_DDOT":0},{"OBJECT_NAME":"FLOCK 4Q-12","OBJECT_ID":"2023-174V","EPOCH":"2026-03-14T17:02:16.045152","MEAN_MOTION":15.52994783,"ECCENTRICITY":0.0004948,"INCLINATION":97.3873,"RA_OF_ASC_NODE":163.0114,"ARG_OF_PERICENTER":140.5122,"MEAN_ANOMALY":219.6492,"EPHEMERIS_TYPE":0,"CLASSIFICATION_TYPE":"U","NORAD_CAT_ID":58275,"ELEMENT_SET_NO":999,"REV_AT_EPOCH":13117,"BSTAR":0.0017993237,"MEAN_MOTION_DOT":0.00113559,"MEAN_MOTION_DDOT":0},{"OBJECT_NAME":"FLOCK 4Q-28","OBJECT_ID":"2023-174AA","EPOCH":"2026-03-14T19:09:43.677216","MEAN_MOTION":15.49413406,"ECCENTRICITY":0.00073661,"INCLINATION":97.391,"RA_OF_ASC_NODE":162.3053,"ARG_OF_PERICENTER":136.3626,"MEAN_ANOMALY":223.8209,"EPHEMERIS_TYPE":0,"CLASSIFICATION_TYPE":"U","NORAD_CAT_ID":58280,"ELEMENT_SET_NO":999,"REV_AT_EPOCH":13110,"BSTAR":0.00071804534,"MEAN_MOTION_DOT":0.00039505,"MEAN_MOTION_DDOT":0},{"OBJECT_NAME":"FLOCK 4Q-27","OBJECT_ID":"2023-174AC","EPOCH":"2026-03-14T17:30:49.948128","MEAN_MOTION":15.49375762,"ECCENTRICITY":0.00068581,"INCLINATION":97.3839,"RA_OF_ASC_NODE":161.7682,"ARG_OF_PERICENTER":134.2014,"MEAN_ANOMALY":225.9801,"EPHEMERIS_TYPE":0,"CLASSIFICATION_TYPE":"U","NORAD_CAT_ID":58282,"ELEMENT_SET_NO":999,"REV_AT_EPOCH":13110,"BSTAR":0.00066909842,"MEAN_MOTION_DOT":0.00036739,"MEAN_MOTION_DDOT":0},{"OBJECT_NAME":"FLOCK 4Q-26","OBJECT_ID":"2023-174AE","EPOCH":"2026-03-14T16:45:17.339040","MEAN_MOTION":15.51240896,"ECCENTRICITY":0.00073154,"INCLINATION":97.3894,"RA_OF_ASC_NODE":163.1885,"ARG_OF_PERICENTER":134.1305,"MEAN_ANOMALY":226.055,"EPHEMERIS_TYPE":0,"CLASSIFICATION_TYPE":"U","NORAD_CAT_ID":58284,"ELEMENT_SET_NO":999,"REV_AT_EPOCH":13115,"BSTAR":0.00070059038,"MEAN_MOTION_DOT":0.0004112,"MEAN_MOTION_DDOT":0},{"OBJECT_NAME":"FLOCK 4Q-31","OBJECT_ID":"2023-174AF","EPOCH":"2026-03-14T15:59:14.610912","MEAN_MOTION":15.50846889,"ECCENTRICITY":0.00076616,"INCLINATION":97.3937,"RA_OF_ASC_NODE":162.7976,"ARG_OF_PERICENTER":136.6714,"MEAN_ANOMALY":223.5142,"EPHEMERIS_TYPE":0,"CLASSIFICATION_TYPE":"U","NORAD_CAT_ID":58285,"ELEMENT_SET_NO":999,"REV_AT_EPOCH":13110,"BSTAR":0.00089052199,"MEAN_MOTION_DOT":0.0005164,"MEAN_MOTION_DDOT":0},{"OBJECT_NAME":"FLOCK 4Q-30","OBJECT_ID":"2023-174AG","EPOCH":"2026-03-14T17:13:55.398720","MEAN_MOTION":15.51047194,"ECCENTRICITY":0.00071097,"INCLINATION":97.3949,"RA_OF_ASC_NODE":163.0339,"ARG_OF_PERICENTER":136.3713,"MEAN_ANOMALY":223.8102,"EPHEMERIS_TYPE":0,"CLASSIFICATION_TYPE":"U","NORAD_CAT_ID":58286,"ELEMENT_SET_NO":999,"REV_AT_EPOCH":13112,"BSTAR":0.00087426983,"MEAN_MOTION_DOT":0.00051046,"MEAN_MOTION_DDOT":0},{"OBJECT_NAME":"PELICAN-1","OBJECT_ID":"2023-174AS","EPOCH":"2026-03-13T05:18:58.774176","MEAN_MOTION":15.63326024,"ECCENTRICITY":0.00096635,"INCLINATION":97.3987,"RA_OF_ASC_NODE":167.1452,"ARG_OF_PERICENTER":250.9049,"MEAN_ANOMALY":109.1163,"EPHEMERIS_TYPE":0,"CLASSIFICATION_TYPE":"U","NORAD_CAT_ID":58296,"ELEMENT_SET_NO":999,"REV_AT_EPOCH":13111,"BSTAR":0.00031803204,"MEAN_MOTION_DOT":0.00029201,"MEAN_MOTION_DDOT":0},{"OBJECT_NAME":"FLOCK 4Q-25","OBJECT_ID":"2023-174AZ","EPOCH":"2026-03-14T19:13:42.617280","MEAN_MOTION":15.57097919,"ECCENTRICITY":0.00053109,"INCLINATION":97.3858,"RA_OF_ASC_NODE":164.0461,"ARG_OF_PERICENTER":120.1999,"MEAN_ANOMALY":239.9783,"EPHEMERIS_TYPE":0,"CLASSIFICATION_TYPE":"U","NORAD_CAT_ID":58303,"ELEMENT_SET_NO":999,"REV_AT_EPOCH":13126,"BSTAR":0.00080627762,"MEAN_MOTION_DOT":0.00058658,"MEAN_MOTION_DDOT":0},{"OBJECT_NAME":"FLOCK 4Q-29","OBJECT_ID":"2023-174BA","EPOCH":"2026-03-14T22:39:55.984608","MEAN_MOTION":15.49939738,"ECCENTRICITY":0.00073788,"INCLINATION":97.3935,"RA_OF_ASC_NODE":162.8496,"ARG_OF_PERICENTER":126.6215,"MEAN_ANOMALY":233.5716,"EPHEMERIS_TYPE":0,"CLASSIFICATION_TYPE":"U","NORAD_CAT_ID":58304,"ELEMENT_SET_NO":999,"REV_AT_EPOCH":13113,"BSTAR":0.00070323202,"MEAN_MOTION_DOT":0.0003941,"MEAN_MOTION_DDOT":0},{"OBJECT_NAME":"FLOCK 4Q-22","OBJECT_ID":"2023-174BC","EPOCH":"2026-03-14T16:51:20.409984","MEAN_MOTION":15.5263674,"ECCENTRICITY":0.0006268,"INCLINATION":97.384,"RA_OF_ASC_NODE":162.7988,"ARG_OF_PERICENTER":131.023,"MEAN_ANOMALY":229.1566,"EPHEMERIS_TYPE":0,"CLASSIFICATION_TYPE":"U","NORAD_CAT_ID":58306,"ELEMENT_SET_NO":999,"REV_AT_EPOCH":13117,"BSTAR":0.00079598192,"MEAN_MOTION_DOT":0.00049156,"MEAN_MOTION_DDOT":0},{"OBJECT_NAME":"FLOCK 4Q-23","OBJECT_ID":"2023-174BD","EPOCH":"2026-03-14T17:07:12.146592","MEAN_MOTION":15.55861331,"ECCENTRICITY":0.00067226,"INCLINATION":97.3952,"RA_OF_ASC_NODE":164.4057,"ARG_OF_PERICENTER":125.0685,"MEAN_ANOMALY":235.1201,"EPHEMERIS_TYPE":0,"CLASSIFICATION_TYPE":"U","NORAD_CAT_ID":58307,"ELEMENT_SET_NO":999,"REV_AT_EPOCH":13121,"BSTAR":0.00086639261,"MEAN_MOTION_DOT":0.00060256,"MEAN_MOTION_DDOT":0},{"OBJECT_NAME":"FLOCK 4Q-33","OBJECT_ID":"2023-174BE","EPOCH":"2026-03-14T13:30:18.055872","MEAN_MOTION":15.51665227,"ECCENTRICITY":0.00074504,"INCLINATION":97.3871,"RA_OF_ASC_NODE":162.5852,"ARG_OF_PERICENTER":119.7277,"MEAN_ANOMALY":240.4717,"EPHEMERIS_TYPE":0,"CLASSIFICATION_TYPE":"U","NORAD_CAT_ID":58308,"ELEMENT_SET_NO":999,"REV_AT_EPOCH":13113,"BSTAR":0.00078602154,"MEAN_MOTION_DOT":0.00046884,"MEAN_MOTION_DDOT":0},{"OBJECT_NAME":"FLOCK 4Q-35","OBJECT_ID":"2023-174BF","EPOCH":"2026-03-14T16:22:07.378176","MEAN_MOTION":15.50597931,"ECCENTRICITY":0.0007824,"INCLINATION":97.3896,"RA_OF_ASC_NODE":162.8664,"ARG_OF_PERICENTER":133.339,"MEAN_ANOMALY":226.8515,"EPHEMERIS_TYPE":0,"CLASSIFICATION_TYPE":"U","NORAD_CAT_ID":58309,"ELEMENT_SET_NO":999,"REV_AT_EPOCH":13113,"BSTAR":0.00075645457,"MEAN_MOTION_DOT":0.00043424,"MEAN_MOTION_DDOT":0},{"OBJECT_NAME":"FLOCK 4Q-34","OBJECT_ID":"2023-174BN","EPOCH":"2026-03-14T17:21:52.108992","MEAN_MOTION":15.56118184,"ECCENTRICITY":0.00065721,"INCLINATION":97.3844,"RA_OF_ASC_NODE":163.8101,"ARG_OF_PERICENTER":125.569,"MEAN_ANOMALY":234.6178,"EPHEMERIS_TYPE":0,"CLASSIFICATION_TYPE":"U","NORAD_CAT_ID":58316,"ELEMENT_SET_NO":999,"REV_AT_EPOCH":13122,"BSTAR":0.00085249179,"MEAN_MOTION_DOT":0.00059846,"MEAN_MOTION_DDOT":0}]
